[{"OBJECT_NAME":"HELIOS 1B","OBJECT_ID":"1999-064A","EPOCH":"2026-03-08T16:55:09.269760","MEAN_MOTION":14.87694931,"ECCENTRICITY":0.00024631,"INCLINATION":98.1694,"RA_OF_ASC_NODE":329.9196,"ARG_OF_PERICENTER":76.358,"MEAN_ANOMALY":283.7909,"EPHEMERIS_TYPE":0,"CLASSIFICATION_TYPE":"U","NORAD_CAT_ID":25977,"ELEMENT_SET_NO":999,"REV_AT_EPOCH":68511,"BSTAR":0.00026549045,"MEAN_MOTION_DOT":2.36e-5,"MEAN_MOTION_DDOT":0},{"OBJECT_NAME":"TERRA","OBJECT_ID":"1999-068A","EPOCH":"2026-03-08T23:02:54.485376","MEAN_MOTION":14.61013952,"ECCENTRICITY":0.00026555,"INCLINATION":97.9595,"RA_OF_ASC_NODE":121.423,"ARG_OF_PERICENTER":152.9224,"MEAN_ANOMALY":260.1295,"EPHEMERIS_TYPE":0,"CLASSIFICATION_TYPE":"U","NORAD_CAT_ID":25994,"ELEMENT_SET_NO":999,"REV_AT_EPOCH":39497,"BSTAR":0.00013143822,"MEAN_MOTION_DOT":6.0e-6,"MEAN_MOTION_DDOT":0},{"OBJECT_NAME":"SL-16 R/B","OBJECT_ID":"2000-006B","EPOCH":"2026-03-08T12:41:27.768768","MEAN_MOTION":14.15825843,"ECCENTRICITY":0.00168505,"INCLINATION":71.0011,"RA_OF_ASC_NODE":100.2788,"ARG_OF_PERICENTER":191.9303,"MEAN_ANOMALY":168.1424,"EPHEMERIS_TYPE":0,"CLASSIFICATION_TYPE":"U","NORAD_CAT_ID":26070,"ELEMENT_SET_NO":999,"REV_AT_EPOCH":34839,"BSTAR":5.676514e-6,"MEAN_MOTION_DOT":-3.7e-7,"MEAN_MOTION_DDOT":0},{"OBJECT_NAME":"TITAN 4B R/B","OBJECT_ID":"2000-047B","EPOCH":"2026-03-08T23:13:30.525024","MEAN_MOTION":15.0955505,"ECCENTRICITY":0.00385662,"INCLINATION":67.9901,"RA_OF_ASC_NODE":42.5404,"ARG_OF_PERICENTER":36.2559,"MEAN_ANOMALY":324.1192,"EPHEMERIS_TYPE":0,"CLASSIFICATION_TYPE":"U","NORAD_CAT_ID":26474,"ELEMENT_SET_NO":999,"REV_AT_EPOCH":39280,"BSTAR":0.00038453865,"MEAN_MOTION_DOT":6.164e-5,"MEAN_MOTION_DDOT":0},{"OBJECT_NAME":"ENVISAT","OBJECT_ID":"2002-009A","EPOCH":"2026-03-08T20:05:51.230400","MEAN_MOTION":14.39036601,"ECCENTRICITY":0.00013432,"INCLINATION":98.3728,"RA_OF_ASC_NODE":21.455,"ARG_OF_PERICENTER":82.9115,"MEAN_ANOMALY":287.6065,"EPHEMERIS_TYPE":0,"CLASSIFICATION_TYPE":"U","NORAD_CAT_ID":27386,"ELEMENT_SET_NO":999,"REV_AT_EPOCH":25905,"BSTAR":7.5980762e-5,"MEAN_MOTION_DOT":1.92e-6,"MEAN_MOTION_DDOT":0},{"OBJECT_NAME":"IDEFIX & ARIANE 42P R/B","OBJECT_ID":"2002-021B","EPOCH":"2026-03-08T19:07:11.769600","MEAN_MOTION":14.31025508,"ECCENTRICITY":0.00115162,"INCLINATION":98.5868,"RA_OF_ASC_NODE":6.4136,"ARG_OF_PERICENTER":184.9171,"MEAN_ANOMALY":175.1901,"EPHEMERIS_TYPE":0,"CLASSIFICATION_TYPE":"U","NORAD_CAT_ID":27422,"ELEMENT_SET_NO":999,"REV_AT_EPOCH":24389,"BSTAR":0.00016525564,"MEAN_MOTION_DOT":3.91e-6,"MEAN_MOTION_DDOT":0},{"OBJECT_NAME":"AQUA","OBJECT_ID":"2002-022A","EPOCH":"2026-03-08T22:23:28.934592","MEAN_MOTION":14.61975174,"ECCENTRICITY":5.619e-5,"INCLINATION":98.4174,"RA_OF_ASC_NODE":35.2841,"ARG_OF_PERICENTER":76.8428,"MEAN_ANOMALY":350.9319,"EPHEMERIS_TYPE":0,"CLASSIFICATION_TYPE":"U","NORAD_CAT_ID":27424,"ELEMENT_SET_NO":999,"REV_AT_EPOCH":26862,"BSTAR":0.00030081044,"MEAN_MOTION_DOT":1.458e-5,"MEAN_MOTION_DDOT":0},{"OBJECT_NAME":"CZ-4B R/B","OBJECT_ID":"2002-024C","EPOCH":"2026-03-08T17:43:24.773952","MEAN_MOTION":14.1454747,"ECCENTRICITY":0.00505237,"INCLINATION":98.884,"RA_OF_ASC_NODE":121.15,"ARG_OF_PERICENTER":26.9039,"MEAN_ANOMALY":83.9187,"EPHEMERIS_TYPE":0,"CLASSIFICATION_TYPE":"U","NORAD_CAT_ID":27432,"ELEMENT_SET_NO":999,"REV_AT_EPOCH":22910,"BSTAR":4.6646361e-5,"MEAN_MOTION_DOT":4.6e-7,"MEAN_MOTION_DDOT":0},{"OBJECT_NAME":"MIDORI II (ADEOS-II)","OBJECT_ID":"2002-056A","EPOCH":"2026-03-08T21:26:50.920224","MEAN_MOTION":14.29284476,"ECCENTRICITY":0.00016117,"INCLINATION":98.7769,"RA_OF_ASC_NODE":26.3657,"ARG_OF_PERICENTER":43.5759,"MEAN_ANOMALY":316.5549,"EPHEMERIS_TYPE":0,"CLASSIFICATION_TYPE":"U","NORAD_CAT_ID":27597,"ELEMENT_SET_NO":999,"REV_AT_EPOCH":21018,"BSTAR":0.00018506771,"MEAN_MOTION_DOT":4.25e-6,"MEAN_MOTION_DDOT":0},{"OBJECT_NAME":"H-2A R/B","OBJECT_ID":"2002-056E","EPOCH":"2026-03-08T20:50:58.333344","MEAN_MOTION":14.33760094,"ECCENTRICITY":0.00704558,"INCLINATION":98.3202,"RA_OF_ASC_NODE":28.2655,"ARG_OF_PERICENTER":163.106,"MEAN_ANOMALY":252.0482,"EPHEMERIS_TYPE":0,"CLASSIFICATION_TYPE":"U","NORAD_CAT_ID":27601,"ELEMENT_SET_NO":999,"REV_AT_EPOCH":21399,"BSTAR":0.00013838019,"MEAN_MOTION_DOT":3.54e-6,"MEAN_MOTION_DDOT":0},{"OBJECT_NAME":"CZ-4B R/B","OBJECT_ID":"2003-049C","EPOCH":"2026-03-08T23:18:06.879744","MEAN_MOTION":14.550195,"ECCENTRICITY":0.00472271,"INCLINATION":98.6879,"RA_OF_ASC_NODE":62.8475,"ARG_OF_PERICENTER":233.1473,"MEAN_ANOMALY":126.5388,"EPHEMERIS_TYPE":0,"CLASSIFICATION_TYPE":"U","NORAD_CAT_ID":28059,"ELEMENT_SET_NO":999,"REV_AT_EPOCH":18649,"BSTAR":0.00012958917,"MEAN_MOTION_DOT":5.15e-6,"MEAN_MOTION_DDOT":0},{"OBJECT_NAME":"CZ-2C R/B","OBJECT_ID":"2004-012C","EPOCH":"2026-03-08T17:07:40.588608","MEAN_MOTION":15.64372887,"ECCENTRICITY":0.00130043,"INCLINATION":97.7226,"RA_OF_ASC_NODE":132.9135,"ARG_OF_PERICENTER":313.5636,"MEAN_ANOMALY":46.4542,"EPHEMERIS_TYPE":0,"CLASSIFICATION_TYPE":"U","NORAD_CAT_ID":28222,"ELEMENT_SET_NO":999,"REV_AT_EPOCH":20412,"BSTAR":0.00079990664,"MEAN_MOTION_DOT":0.00077297,"MEAN_MOTION_DDOT":0},{"OBJECT_NAME":"SL-16 R/B","OBJECT_ID":"2004-021B","EPOCH":"2026-03-08T21:23:29.179680","MEAN_MOTION":14.1459829,"ECCENTRICITY":0.00040014,"INCLINATION":70.9994,"RA_OF_ASC_NODE":234.1679,"ARG_OF_PERICENTER":10.7623,"MEAN_ANOMALY":349.3584,"EPHEMERIS_TYPE":0,"CLASSIFICATION_TYPE":"U","NORAD_CAT_ID":28353,"ELEMENT_SET_NO":999,"REV_AT_EPOCH":12272,"BSTAR":-9.5082419e-5,"MEAN_MOTION_DOT":-2.3e-6,"MEAN_MOTION_DDOT":0},{"OBJECT_NAME":"CZ-4B R/B","OBJECT_ID":"2004-035C","EPOCH":"2026-03-08T15:58:48.045504","MEAN_MOTION":15.29044029,"ECCENTRICITY":0.00311191,"INCLINATION":97.3498,"RA_OF_ASC_NODE":101.9202,"ARG_OF_PERICENTER":335.3582,"MEAN_ANOMALY":24.617,"EPHEMERIS_TYPE":0,"CLASSIFICATION_TYPE":"U","NORAD_CAT_ID":28415,"ELEMENT_SET_NO":999,"REV_AT_EPOCH":17975,"BSTAR":0.00041156548,"MEAN_MOTION_DOT":0.00011705,"MEAN_MOTION_DDOT":0},{"OBJECT_NAME":"CZ-2C R/B","OBJECT_ID":"2004-046B","EPOCH":"2026-03-08T18:49:30.777600","MEAN_MOTION":14.26991752,"ECCENTRICITY":0.01398358,"INCLINATION":98.1984,"RA_OF_ASC_NODE":342.8247,"ARG_OF_PERICENTER":157.1069,"MEAN_ANOMALY":203.6429,"EPHEMERIS_TYPE":0,"CLASSIFICATION_TYPE":"U","NORAD_CAT_ID":28480,"ELEMENT_SET_NO":999,"REV_AT_EPOCH":10837,"BSTAR":7.6852904e-5,"MEAN_MOTION_DOT":1.67e-6,"MEAN_MOTION_DDOT":0},{"OBJECT_NAME":"ARIANE 5 R/B","OBJECT_ID":"2004-049H","EPOCH":"2026-03-08T23:00:56.070720","MEAN_MOTION":14.85264491,"ECCENTRICITY":0.00839864,"INCLINATION":98.2626,"RA_OF_ASC_NODE":236.3887,"ARG_OF_PERICENTER":354.3077,"MEAN_ANOMALY":5.7173,"EPHEMERIS_TYPE":0,"CLASSIFICATION_TYPE":"U","NORAD_CAT_ID":28499,"ELEMENT_SET_NO":999,"REV_AT_EPOCH":14568,"BSTAR":0.00012138293,"MEAN_MOTION_DOT":1.044e-5,"MEAN_MOTION_DDOT":0},{"OBJECT_NAME":"CZ-2D R/B","OBJECT_ID":"2005-024B","EPOCH":"2026-03-08T22:33:10.385856","MEAN_MOTION":15.60072855,"ECCENTRICITY":0.00059483,"INCLINATION":97.3599,"RA_OF_ASC_NODE":83.0579,"ARG_OF_PERICENTER":49.4679,"MEAN_ANOMALY":310.7095,"EPHEMERIS_TYPE":0,"CLASSIFICATION_TYPE":"U","NORAD_CAT_ID":28738,"ELEMENT_SET_NO":999,"REV_AT_EPOCH":13966,"BSTAR":0.00066503363,"MEAN_MOTION_DOT":0.00054063,"MEAN_MOTION_DDOT":0}]
